NORAD_CAT_ID,OBJECT_NAME,OBJECT_TYPE,EPOCH,MEAN_MOTION,ECCENTRICITY,INCLINATION,RA_OF_ASC_NODE,ARG_OF_PERICENTER,MEAN_ANOMALY,BSTAR,MEAN_MOTION_DOT,MEAN_MOTION_DDOT,TLE_LINE0,TLE_LINE1,TLE_LINE2,SEMIMAJOR_AXIS,PERIOD,APOGEE,PERIGEE,DECAYED
53731.0,STARLINK-4636,PAYLOAD,2024-01-30 12:35:09,15.08831518,0.0001704,53.2183,107.1888,86.9809,273.1378,0.00015075,2.111e-05,0.0,0 STARLINK-4636,1 53731U 22107AH  24030.52442037  .00002111  00000-0  15075-3 0  9993,2 53731  53.2183 107.1888 0001704  86.9809 273.1378 15.08831518 78464,6917.906,95.438,540.95,538.593,0.0
53731.0,STARLINK-4636,PAYLOAD,2024-01-31 12:25:56,15.08852487,0.0001783,53.2179,102.7289,74.0721,286.0467,5.2474e-05,5.47e-06,0.0,0 STARLINK-4636,1 53731U 22107AH  24031.51801138  .00000547  00000-0  52474-4 0  9990,2 53731  53.2179 102.7289 0001783  74.0721 286.0467 15.08852487 77989,6917.842,95.437,540.941,538.474,0.0
53731.0,STARLINK-4636,PAYLOAD,2024-01-31 14:01:19,15.08852252,0.0001703,53.2164,102.4305,78.772,281.3464,0.00012442,1.693e-05,0.0,0 STARLINK-4636,1 53731U 22107AH  24031.58424968  .00001693  00000-0  12442-3 0  9992,2 53731  53.2164 102.4305 0001703  78.7720 281.3464 15.08852252 78628,6917.843,95.437,540.886,538.53,0.0
53731.0,STARLINK-4636,PAYLOAD,2024-02-01 10:41:20,15.08838096,0.0001779,53.2185,98.5549,74.5965,285.5224,4.89e-05,4.9e-06,0.0,0 STARLINK-4636,1 53731U 22107AH  24032.44537865  .00000490  00000-0  48900-4 0  9992,2 53731  53.2185  98.5549 0001779  74.5965 285.5224 15.08838096 78129,6917.886,95.438,540.982,538.521,0.0
53731.0,STARLINK-4636,PAYLOAD,2024-02-02 10:32:07,15.08851388,0.0001467,53.2175,94.0945,102.9096,257.206,0.00011817,1.594e-05,0.0,0 STARLINK-4636,1 53731U 22107AH  24033.43896991  .00001594  00000-0  11817-3 0  9992,2 53731  53.2175  94.0945 0001467 102.9096 257.2060 15.08851388 78273,6917.846,95.437,540.725,538.696,0.0
53731.0,STARLINK-4636,PAYLOAD,2024-02-03 04:01:22,15.08836296,0.0001669,53.217,90.8398,110.6794,249.4377,0.00030283,4.534e-05,0.0,0 STARLINK-4636,1 53731U 22107AH  24034.16761720  .00004534  00000-0  30283-3 0  9999,2 53731  53.2170  90.8398 0001669 110.6794 249.4377 15.08836296 78386,6917.892,95.438,540.911,538.602,0.0
53731.0,STARLINK-4636,PAYLOAD,2024-02-03 10:22:55,15.08818398,0.0001507,53.2182,89.6456,111.0265,249.0888,0.00038018,5.764e-05,0.0,0 STARLINK-4636,1 53731U 22107AH  24034.43258222  .00005764  00000-0  38018-3 0  9997,2 53731  53.2182  89.6456 0001507 111.0265 249.0888 15.08818398 78420,6917.946,95.439,540.854,538.769,0.0
53731.0,STARLINK-4636,PAYLOAD,2024-02-03 13:33:40,15.08839987,0.0001401,53.2177,89.0481,105.9264,254.1882,7.3144e-05,8.76e-06,0.0,0 STARLINK-4636,1 53731U 22107AH  24034.56505622  .00000876  00000-0  73144-4 0  9999,2 53731  53.2177  89.0481 0001401 105.9264 254.1882 15.08839987 79070,6917.88,95.438,540.715,538.776,0.0
53731.0,STARLINK-4636,PAYLOAD,2024-02-04 10:13:41,15.08843395,0.0001582,53.2175,85.1823,102.8115,257.3054,4.6546e-05,4.53e-06,0.0,0 STARLINK-4636,1 53731U 22107AH  24035.42617470  .00000453  00000-0  46546-4 0  9997,2 53731  53.2175  85.1823 0001582 102.8115 257.3054 15.08843395 79205,6917.87,95.437,540.829,538.641,0.0
53731.0,STARLINK-4636,PAYLOAD,2024-02-05 03:42:56,15.08831523,0.0001507,53.2174,81.9115,103.2785,256.8376,2.0815e-05,4.3e-07,0.0,0 STARLINK-4636,1 53731U 22107AH  24036.15482432  .00000043  00000-0  20815-4 0  9992,2 53731  53.2174  81.9115 0001507 103.2785 256.8376 15.08831523 78689,6917.906,95.438,540.814,538.729,0.0
53731.0,STARLINK-4636,PAYLOAD,2024-02-05 10:04:29,15.08837235,0.0001537,53.2176,80.7247,100.3614,259.7552,6.1181e-05,6.86e-06,0.0,0 STARLINK-4636,1 53731U 22107AH  24036.41978122  .00000686  00000-0  61181-4 0  9991,2 53731  53.2176  80.7247 0001537 100.3614 259.7552 15.08837235 79355,6917.889,95.438,540.817,538.691,0.0
53731.0,STARLINK-4636,PAYLOAD,2024-02-06 11:30:38,15.08850008,0.000186,53.2178,75.9682,107.3047,252.8149,5.6015e-05,6.04e-06,0.0,0 STARLINK-4636,1 53731U 22107AH  24037.47961603  .00000604  00000-0  56015-4 0  9994,2 53731  53.2178  75.9682 0001860 107.3047 252.8149 15.08850008 78888,6917.85,95.437,541.002,538.428,0.0
53731.0,STARLINK-4636,PAYLOAD,2024-02-07 01:49:07,15.08839043,0.0001806,53.2184,73.2943,108.5926,251.5262,7.4516e-05,8.98e-06,0.0,0 STARLINK-4636,1 53731U 22107AH  24038.07578487  .00000898  00000-0  74516-4 0  9996,2 53731  53.2184  73.2943 0001806 108.5926 251.5262 15.08839043 78973,6917.883,95.438,540.998,538.499,0.0
53731.0,STARLINK-4636,PAYLOAD,2024-02-07 09:46:03,15.08835457,0.0001508,53.2174,71.8034,102.1913,257.9248,3.915e-05,3.35e-06,0.0,0 STARLINK-4636,1 53731U 22107AH  24038.40698917  .00000335  00000-0  39150-4 0  9995,2 53731  53.2174  71.8034 0001508 102.1913 257.9248 15.08835457 79657,6917.894,95.438,540.802,538.716,0.0
53731.0,STARLINK-4636,PAYLOAD,2024-02-07 19:18:22,15.08840072,0.00014,53.2171,70.0187,90.9074,269.2079,8.8749e-05,1.125e-05,0.0,0 STARLINK-4636,1 53731U 22107AH  24038.80442642  .00001125  00000-0  88749-4 0  9997,2 53731  53.2171  70.0187 0001400  90.9074 269.2079 15.08840072 79711,6917.88,95.438,540.714,538.777,0.0
53731.0,STARLINK-4636,PAYLOAD,2024-02-08 11:12:13,15.08855558,0.0001391,53.2157,67.0437,90.587,269.5282,0.00023959,3.529e-05,0.0,0 STARLINK-4636,1 53731U 22107AH  24039.46681794  .00003529  00000-0  23959-3 0  9994,2 53731  53.2157  67.0437 0001391  90.5870 269.5282 15.08855558 79183,6917.833,95.437,540.66,538.736,0.0
53731.0,STARLINK-4636,PAYLOAD,2024-02-09 11:03:00,15.0884917,0.0001446,53.2159,62.582,91.7019,268.4139,0.00022503,3.296e-05,0.0,0 STARLINK-4636,1 53731U 22107AH  24040.46042174  .00003296  00000-0  22503-3 0  9994,2 53731  53.2159  62.5820 0001446  91.7019 268.4139 15.08849170 79339,6917.852,95.437,540.718,538.717,0.0
53731.0,STARLINK-4636,PAYLOAD,2024-02-10 01:21:28,15.08840645,0.0001469,53.2147,59.9059,96.7971,263.3188,2.0531e-05,3.9e-07,0.0,0 STARLINK-4636,1 53731U 22107AH  24041.05658480  .00000039  00000-0  20531-4 0  9995,2 53731  53.2147  59.9059 0001469  96.7971 263.3188 15.08840645 79423,6917.878,95.438,540.76,538.727,0.0
53731.0,STARLINK-4636,PAYLOAD,2024-02-10 07:43:01,15.08848145,0.0001523,53.2168,58.7175,99.1786,260.9379,3.6741e-05,2.97e-06,0.0,0 STARLINK-4636,1 53731U 22107AH  24041.32154126  .00000297  00000-0  36741-4 0  9999,2 53731  53.2168  58.7175 0001523  99.1786 260.9379 15.08848145 80097,6917.855,95.437,540.774,538.667,0.0
53731.0,STARLINK-4636,PAYLOAD,2024-02-11 01:12:16,15.08842149,0.0001726,53.2174,55.4477,107.5203,252.5978,0.0002157,3.147e-05,0.0,0 STARLINK-4636,1 53731U 22107AH  24042.05018708  .00003147  00000-0  21570-3 0  9995,2 53731  53.2174  55.4477 0001726 107.5203 252.5978 15.08842149 79577,6917.874,95.437,540.933,538.545,0.0
53731.0,STARLINK-4636,PAYLOAD,2024-02-11 07:33:48,15.08846135,0.0001675,53.2172,54.2567,104.6724,255.4454,7.0186e-05,8.29e-06,0.0,0 STARLINK-4636,1 53731U 22107AH  24042.31514412  .00000829  00000-0  70186-4 0  9999,2 53731  53.2172  54.2567 0001675 104.6724 255.4454 15.08846135 80247,6917.862,95.437,540.885,538.568,0.0
53731.0,STARLINK-4636,PAYLOAD,2024-02-12 04:13:49,15.08841101,0.0001871,53.2178,50.3928,114.1852,245.9336,0.00012948,1.773e-05,0.0,0 STARLINK-4636,1 53731U 22107AH  24043.17626668  .00001773  00000-0  12948-3 0  9991,2 53731  53.2178  50.3928 0001871 114.1852 245.9336 15.08841101 79741,6917.877,95.437,541.036,538.448,0.0
53731.0,STARLINK-4636,PAYLOAD,2024-02-12 10:35:21,15.0884794,0.0001729,53.217,49.1999,107.1059,253.0123,0.00019467,2.812e-05,0.0,0 STARLINK-4636,1 53731U 22107AH  24043.44122317  .00002812  00000-0  19467-3 0  9991,2 53731  53.2170  49.1999 0001729 107.1059 253.0123 15.08847940 80417,6917.856,95.437,540.917,538.525,0.0
53731.0,STARLINK-4636,PAYLOAD,2024-02-13 04:04:36,15.08834234,0.0001618,53.2168,45.923,110.5435,249.5731,-5.5145e-05,-1.165e-05,0.0,0 STARLINK-4636,1 53731U 22107AH  24044.16987024 -.00001165  00000-0 -55145-4 0  9991,2 53731  53.2168  45.9230 0001618 110.5435 249.5731 15.08834234 79896,6917.898,95.438,540.882,538.644,0.0
53731.0,STARLINK-4636,PAYLOAD,2024-02-13 05:39:59,15.08834032,0.0001625,53.2174,45.6257,112.1101,248.0064,-5.2407e-05,-1.122e-05,0.0,0 STARLINK-4636,1 53731U 22107AH  24044.23611084 -.00001122  00000-0 -52407-4 0  9990,2 53731  53.2174  45.6257 0001625 112.1101 248.0064 15.08834032 80537,6917.899,95.438,540.888,538.639,0.0
53731.0,STARLINK-4636,PAYLOAD,2024-02-13 16:47:42,15.08840974,0.0001436,53.2185,43.5525,98.8303,261.2852,0.00011455,1.536e-05,0.0,0 STARLINK-4636,1 53731U 22107AH  24044.69979235  .00001536  00000-0  11455-3 0  9999,2 53731  53.2185  43.5525 0001436  98.8303 261.2852 15.08840974 80600,6917.877,95.437,540.736,538.749,0.0
53731.0,STARLINK-4636,PAYLOAD,2024-02-14 08:41:33,15.08847696,0.0001744,53.2189,40.5791,94.5473,265.5718,0.00015341,2.155e-05,0.0,0 STARLINK-4636,1 53731U 22107AH  24045.36218961  .00002155  00000-0  15341-3 0  9992,2 53731  53.2189  40.5791 0001744  94.5473 265.5718 15.08847696 80076,6917.857,95.437,540.928,538.515,0.0
53731.0,STARLINK-4636,PAYLOAD,2024-02-14 16:38:29,15.08839559,0.0001559,53.2176,39.0897,94.5319,265.5851,3.2352e-05,2.27e-06,0.0,0 STARLINK-4636,1 53731U 22107AH  24045.69339247  .00000227  00000-0  32352-4 0  9999,2 53731  53.2176  39.0897 0001559  94.5319 265.5851 15.08839559 80128,6917.882,95.438,540.825,538.668,0.0
53731.0,STARLINK-4636,PAYLOAD,2024-02-15 06:56:57,15.08840999,0.0001635,53.218,36.4167,89.0975,271.0205,0.00011887,1.604e-05,0.0,0 STARLINK-4636,1 53731U 22107AH  24046.28955536  .00001604  00000-0  11887-3 0  9999,2 53731  53.2180  36.4167 0001635  89.0975 271.0205 15.08840999 80840,6917.877,95.437,540.873,538.611,0.0
53731.0,STARLINK-4636,PAYLOAD,2024-02-15 16:29:16,15.08840578,0.0001641,53.2188,34.6288,86.9921,273.1259,9.3447e-05,1.2e-05,0.0,0 STARLINK-4636,1 53731U 22107AH  24046.68699615  .00001200  00000-0  93447-4 0  9991,2 53731  53.2188  34.6288 0001641  86.9921 273.1259 15.08840578 80908,6917.879,95.438,540.879,538.608,0.0
